ORBCOMM FM24            
1 25478U 98053D   25255.34582141  .00000808  00000+0  30951-3 0  9994
2 25478  45.0069 215.7830 0004414 307.2753  52.7693 14.38289018409995
ORBCOMM FM25            
1 25479U 98053E   25255.59674620  .00000956  00000+0  35797-3 0  9993
2 25479  45.0061 212.8762 0006648 318.1131  41.9208 14.38258689410323
ORBCOMM FM26            
1 25480U 98053F   25255.87474702  .00000655  00000+0  26489-3 0  9999
2 25480  45.0059 208.6551 0008117 334.1230  25.9211 14.37289789410265
ORBCOMM FM27            
1 25481U 98053G   25255.92984935  .00000862  00000+0  32695-3 0  9996
2 25481  45.0044 211.4665 0002922 313.3153  46.7451 14.38291724410304
ORBCOMM FM28            
1 25482U 98053H   25255.95657711  .00000592  00000+0  23842-3 0  9993
2 25482  45.0051 148.7197 0005746  14.5245 345.5768 14.38460495410993
ORBCOMM FM30            
1 25980U 99065A   25255.78522345  .00000597  00000+0  24503-3 0  9995
2 25980  45.0325  35.0357 0006348  99.6093 260.5473 14.37459121347058
ORBCOMM FM31            
1 25981U 99065B   25255.76233132  .00000596  00000+0  24499-3 0  9990
2 25981  45.0241  28.6132 0004345 131.9233 228.1986 14.37390014346600
ORBCOMM FM32            
1 25982U 99065C   25255.72783675  .00000648  00000+0  26692-3 0  9994
2 25982  45.0164  45.9427 0006678 117.3440 242.8089 14.36443163347187
