<?xml version="1.0" encoding="UTF-8"?>
<ndm xmlns:xsi="http://www.w3.org/2001/XMLSchema-instance" xsi:noNamespaceSchemaLocation="https://sanaregistry.org/r/ndmxml_unqualified/ndmxml-2.0.0-master-2.0.xsd">
<omm id="CCSDS_OMM_VERS" version="2.0">
<header><CREATION_DATE/><ORIGINATOR/></header><body><segment><metadata><OBJECT_NAME>ORBCOMM FM24</OBJECT_NAME><OBJECT_ID>1998-053D</OBJECT_ID><CENTER_NAME>EARTH</CENTER_NAME><REF_FRAME>TEME</REF_FRAME><TIME_SYSTEM>UTC</TIME_SYSTEM><MEAN_ELEMENT_THEORY>SGP4</MEAN_ELEMENT_THEORY></metadata><data><meanElements><EPOCH>2025-09-12T08:17:58.969824</EPOCH><MEAN_MOTION>14.38289018</MEAN_MOTION><ECCENTRICITY>.00044141</ECCENTRICITY><INCLINATION>45.0069</INCLINATION><RA_OF_ASC_NODE>215.7830</RA_OF_ASC_NODE><ARG_OF_PERICENTER>307.2753</ARG_OF_PERICENTER><MEAN_ANOMALY>52.7693</MEAN_ANOMALY></meanElements><tleParameters><EPHEMERIS_TYPE>0</EPHEMERIS_TYPE><CLASSIFICATION_TYPE>U</CLASSIFICATION_TYPE><NORAD_CAT_ID>25478</NORAD_CAT_ID><ELEMENT_SET_NO>999</ELEMENT_SET_NO><REV_AT_EPOCH>40999</REV_AT_EPOCH><BSTAR>.30951405E-3</BSTAR><MEAN_MOTION_DOT>.808E-5</MEAN_MOTION_DOT><MEAN_MOTION_DDOT>0</MEAN_MOTION_DDOT></tleParameters></data></segment></body></omm>
<omm id="CCSDS_OMM_VERS" version="2.0">
<header><CREATION_DATE/><ORIGINATOR/></header><body><segment><metadata><OBJECT_NAME>ORBCOMM FM25</OBJECT_NAME><OBJECT_ID>1998-053E</OBJECT_ID><CENTER_NAME>EARTH</CENTER_NAME><REF_FRAME>TEME</REF_FRAME><TIME_SYSTEM>UTC</TIME_SYSTEM><MEAN_ELEMENT_THEORY>SGP4</MEAN_ELEMENT_THEORY></metadata><data><meanElements><EPOCH>2025-09-12T14:19:18.871680</EPOCH><MEAN_MOTION>14.38258689</MEAN_MOTION><ECCENTRICITY>.00066487</ECCENTRICITY><INCLINATION>45.0061</INCLINATION><RA_OF_ASC_NODE>212.8762</RA_OF_ASC_NODE><ARG_OF_PERICENTER>318.1131</ARG_OF_PERICENTER><MEAN_ANOMALY>41.9208</MEAN_ANOMALY></meanElements><tleParameters><EPHEMERIS_TYPE>0</EPHEMERIS_TYPE><CLASSIFICATION_TYPE>U</CLASSIFICATION_TYPE><NORAD_CAT_ID>25479</NORAD_CAT_ID><ELEMENT_SET_NO>999</ELEMENT_SET_NO><REV_AT_EPOCH>41032</REV_AT_EPOCH><BSTAR>.3579698E-3</BSTAR><MEAN_MOTION_DOT>.956E-5</MEAN_MOTION_DOT><MEAN_MOTION_DDOT>0</MEAN_MOTION_DDOT></tleParameters></data></segment></body></omm>
<omm id="CCSDS_OMM_VERS" version="2.0">
<header><CREATION_DATE/><ORIGINATOR/></header><body><segment><metadata><OBJECT_NAME>ORBCOMM FM26</OBJECT_NAME><OBJECT_ID>1998-053F</OBJECT_ID><CENTER_NAME>EARTH</CENTER_NAME><REF_FRAME>TEME</REF_FRAME><TIME_SYSTEM>UTC</TIME_SYSTEM><MEAN_ELEMENT_THEORY>SGP4</MEAN_ELEMENT_THEORY></metadata><data><meanElements><EPOCH>2025-09-12T20:59:38.142528</EPOCH><MEAN_MOTION>14.37289789</MEAN_MOTION><ECCENTRICITY>.00081172</ECCENTRICITY><INCLINATION>45.0059</INCLINATION><RA_OF_ASC_NODE>208.6551</RA_OF_ASC_NODE><ARG_OF_PERICENTER>334.1230</ARG_OF_PERICENTER><MEAN_ANOMALY>25.9211</MEAN_ANOMALY></meanElements><tleParameters><EPHEMERIS_TYPE>0</EPHEMERIS_TYPE><CLASSIFICATION_TYPE>U</CLASSIFICATION_TYPE><NORAD_CAT_ID>25480</NORAD_CAT_ID><ELEMENT_SET_NO>999</ELEMENT_SET_NO><REV_AT_EPOCH>41026</REV_AT_EPOCH><BSTAR>.26488754E-3</BSTAR><MEAN_MOTION_DOT>.655E-5</MEAN_MOTION_DOT><MEAN_MOTION_DDOT>0</MEAN_MOTION_DDOT></tleParameters></data></segment></body></omm>
<omm id="CCSDS_OMM_VERS" version="2.0">
<header><CREATION_DATE/><ORIGINATOR/></header><body><segment><metadata><OBJECT_NAME>ORBCOMM FM27</OBJECT_NAME><OBJECT_ID>1998-053G</OBJECT_ID><CENTER_NAME>EARTH</CENTER_NAME><REF_FRAME>TEME</REF_FRAME><TIME_SYSTEM>UTC</TIME_SYSTEM><MEAN_ELEMENT_THEORY>SGP4</MEAN_ELEMENT_THEORY></metadata><data><meanElements><EPOCH>2025-09-12T22:18:58.983840</EPOCH><MEAN_MOTION>14.38291724</MEAN_MOTION><ECCENTRICITY>.00029228</ECCENTRICITY><INCLINATION>45.0044</INCLINATION><RA_OF_ASC_NODE>211.4665</RA_OF_ASC_NODE><ARG_OF_PERICENTER>313.3153</ARG_OF_PERICENTER><MEAN_ANOMALY>46.7451</MEAN_ANOMALY></meanElements><tleParameters><EPHEMERIS_TYPE>0</EPHEMERIS_TYPE><CLASSIFICATION_TYPE>U</CLASSIFICATION_TYPE><NORAD_CAT_ID>25481</NORAD_CAT_ID><ELEMENT_SET_NO>999</ELEMENT_SET_NO><REV_AT_EPOCH>41030</REV_AT_EPOCH><BSTAR>.32695406E-3</BSTAR><MEAN_MOTION_DOT>.862E-5</MEAN_MOTION_DOT><MEAN_MOTION_DDOT>0</MEAN_MOTION_DDOT></tleParameters></data></segment></body></omm>
<omm id="CCSDS_OMM_VERS" version="2.0">
<header><CREATION_DATE/><ORIGINATOR/></header><body><segment><metadata><OBJECT_NAME>ORBCOMM FM28</OBJECT_NAME><OBJECT_ID>1998-053H</OBJECT_ID><CENTER_NAME>EARTH</CENTER_NAME><REF_FRAME>TEME</REF_FRAME><TIME_SYSTEM>UTC</TIME_SYSTEM><MEAN_ELEMENT_THEORY>SGP4</MEAN_ELEMENT_THEORY></metadata><data><meanElements><EPOCH>2025-09-12T22:57:28.262304</EPOCH><MEAN_MOTION>14.38460495</MEAN_MOTION><ECCENTRICITY>.00057467</ECCENTRICITY><INCLINATION>45.0051</INCLINATION><RA_OF_ASC_NODE>148.7197</RA_OF_ASC_NODE><ARG_OF_PERICENTER>14.5245</ARG_OF_PERICENTER><MEAN_ANOMALY>345.5768</MEAN_ANOMALY></meanElements><tleParameters><EPHEMERIS_TYPE>0</EPHEMERIS_TYPE><CLASSIFICATION_TYPE>U</CLASSIFICATION_TYPE><NORAD_CAT_ID>25482</NORAD_CAT_ID><ELEMENT_SET_NO>999</ELEMENT_SET_NO><REV_AT_EPOCH>41099</REV_AT_EPOCH><BSTAR>.23841688E-3</BSTAR><MEAN_MOTION_DOT>.592E-5</MEAN_MOTION_DOT><MEAN_MOTION_DDOT>0</MEAN_MOTION_DDOT></tleParameters></data></segment></body></omm>
<omm id="CCSDS_OMM_VERS" version="2.0">
<header><CREATION_DATE/><ORIGINATOR/></header><body><segment><metadata><OBJECT_NAME>ORBCOMM FM30</OBJECT_NAME><OBJECT_ID>1999-065A</OBJECT_ID><CENTER_NAME>EARTH</CENTER_NAME><REF_FRAME>TEME</REF_FRAME><TIME_SYSTEM>UTC</TIME_SYSTEM><MEAN_ELEMENT_THEORY>SGP4</MEAN_ELEMENT_THEORY></metadata><data><meanElements><EPOCH>2025-09-12T18:50:43.306080</EPOCH><MEAN_MOTION>14.37459121</MEAN_MOTION><ECCENTRICITY>.00063481</ECCENTRICITY><INCLINATION>45.0325</INCLINATION><RA_OF_ASC_NODE>35.0357</RA_OF_ASC_NODE><ARG_OF_PERICENTER>99.6093</ARG_OF_PERICENTER><MEAN_ANOMALY>260.5473</MEAN_ANOMALY></meanElements><tleParameters><EPHEMERIS_TYPE>0</EPHEMERIS_TYPE><CLASSIFICATION_TYPE>U</CLASSIFICATION_TYPE><NORAD_CAT_ID>25980</NORAD_CAT_ID><ELEMENT_SET_NO>999</ELEMENT_SET_NO><REV_AT_EPOCH>34705</REV_AT_EPOCH><BSTAR>.24503015E-3</BSTAR><MEAN_MOTION_DOT>.597E-5</MEAN_MOTION_DOT><MEAN_MOTION_DDOT>0</MEAN_MOTION_DDOT></tleParameters></data></segment></body></omm>
<omm id="CCSDS_OMM_VERS" version="2.0">
<header><CREATION_DATE/><ORIGINATOR/></header><body><segment><metadata><OBJECT_NAME>ORBCOMM FM31</OBJECT_NAME><OBJECT_ID>1999-065B</OBJECT_ID><CENTER_NAME>EARTH</CENTER_NAME><REF_FRAME>TEME</REF_FRAME><TIME_SYSTEM>UTC</TIME_SYSTEM><MEAN_ELEMENT_THEORY>SGP4</MEAN_ELEMENT_THEORY></metadata><data><meanElements><EPOCH>2025-09-12T18:17:45.426048</EPOCH><MEAN_MOTION>14.37390014</MEAN_MOTION><ECCENTRICITY>.00043453</ECCENTRICITY><INCLINATION>45.0241</INCLINATION><RA_OF_ASC_NODE>28.6132</RA_OF_ASC_NODE><ARG_OF_PERICENTER>131.9233</ARG_OF_PERICENTER><MEAN_ANOMALY>228.1986</MEAN_ANOMALY></meanElements><tleParameters><EPHEMERIS_TYPE>0</EPHEMERIS_TYPE><CLASSIFICATION_TYPE>U</CLASSIFICATION_TYPE><NORAD_CAT_ID>25981</NORAD_CAT_ID><ELEMENT_SET_NO>999</ELEMENT_SET_NO><REV_AT_EPOCH>34660</REV_AT_EPOCH><BSTAR>.24498973E-3</BSTAR><MEAN_MOTION_DOT>.596E-5</MEAN_MOTION_DOT><MEAN_MOTION_DDOT>0</MEAN_MOTION_DDOT></tleParameters></data></segment></body></omm>
<omm id="CCSDS_OMM_VERS" version="2.0">
<header><CREATION_DATE/><ORIGINATOR/></header><body><segment><metadata><OBJECT_NAME>ORBCOMM FM32</OBJECT_NAME><OBJECT_ID>1999-065C</OBJECT_ID><CENTER_NAME>EARTH</CENTER_NAME><REF_FRAME>TEME</REF_FRAME><TIME_SYSTEM>UTC</TIME_SYSTEM><MEAN_ELEMENT_THEORY>SGP4</MEAN_ELEMENT_THEORY></metadata><data><meanElements><EPOCH>2025-09-12T17:28:05.095200</EPOCH><MEAN_MOTION>14.36443163</MEAN_MOTION><ECCENTRICITY>.00066785</ECCENTRICITY><INCLINATION>45.0164</INCLINATION><RA_OF_ASC_NODE>45.9427</RA_OF_ASC_NODE><ARG_OF_PERICENTER>117.3440</ARG_OF_PERICENTER><MEAN_ANOMALY>242.8089</MEAN_ANOMALY></meanElements><tleParameters><EPHEMERIS_TYPE>0</EPHEMERIS_TYPE><CLASSIFICATION_TYPE>U</CLASSIFICATION_TYPE><NORAD_CAT_ID>25982</NORAD_CAT_ID><ELEMENT_SET_NO>999</ELEMENT_SET_NO><REV_AT_EPOCH>34718</REV_AT_EPOCH><BSTAR>.2669205E-3</BSTAR><MEAN_MOTION_DOT>.648E-5</MEAN_MOTION_DOT><MEAN_MOTION_DDOT>0</MEAN_MOTION_DDOT></tleParameters></data></segment></body></omm>

</ndm>
